STARLINK-5751           
1 55576C 23020H   26102.17826389  .00001015  00000+0  36742-4 0  1028
2 55576  43.0020 150.2911 0001516 267.7206  35.3126 15.27583858    14
STARLINK-5752           
1 55577C 23020J   26102.11854167  .00035844  00000+0  12990-2 0  1022
2 55577  43.0009 176.5738 0001842 279.6376  43.3565 15.27540455    14
STARLINK-5754           
1 55579C 23020L   26102.16784722  .00031132  00000+0  11271-2 0  1025
2 55579  43.0013 176.0870 0001285 252.7011  94.8295 15.27577470    10
STARLINK-5757           
1 55580C 23020M   26102.19215278 -.00004199  00000+0 -15211-3 0  1029
2 55580  43.0019 150.3416 0001835 261.9078  61.0071 15.27578342    12
STARLINK-5753           
1 55581C 23020N   26102.14840278  .00025384  00000+0  14859-2 0  1022
2 55581  43.0003 181.4693 0001509 265.6630 268.9725 15.11058131    17
STARLINK-5741           
1 55582C 23020P   26102.19979167  .00008150  00000+0  30276-3 0  1022
2 55582  43.0002 164.9549 0001513 261.2686 132.9575 15.26741409    17
STARLINK-5742           
1 55583C 23020Q   26102.14006944  .00034576  00000+0  12524-2 0  1028
2 55583  43.0001 175.9499 0001496 263.5053  58.4861 15.27559970    17
STARLINK-5736           
1 55584C 23020R   26102.13381944  .00035026  00000+0  12689-2 0  1027
2 55584  43.0017 176.7567 0001653 265.6211  56.5339 15.27553646    17
STARLINK-5769           
1 55585C 23020S   26102.11923611  .00024466  00000+0  90886-3 0  1021
2 55585  43.0013 165.7247 0001422 254.9635 285.4749 15.26735346    18
STARLINK-5767           
1 55586C 23020T   26102.12548611  .00029270  00000+0  10877-2 0  1025
2 55586  43.0014 176.3886 0001448 257.1668 193.1134 15.26722543    14
STARLINK-5727           
1 55587C 23020U   26102.11506944  .00034300  00000+0  12745-2 0  1024
2 55587  42.9998 176.4002 0001403 261.8423 120.3238 15.26723054    12
STARLINK-5728           
1 55588C 23020V   26102.18173611  .00024628  00000+0  93854-3 0  1026
2 55588  43.0014 176.0705 0001379 259.1990 141.4469 15.25892216    17
STARLINK-5697           
1 55589C 23020W   26102.19423611  .00015362  00000+0  55642-3 0  1024
2 55589  43.0012 175.9898 0001147 250.5678 221.0851 15.27570251    12
STARLINK-5762           
1 55590C 23020X   26102.19909722  .00013980  00000+0  51944-3 0  1023
2 55590  43.0008 175.8225 0001392 256.8608 302.7426 15.26733659    13
STARLINK-5760           
1 55591C 23020Y   26102.17201389  .00030347  00000+0  11264-2 0  1022
2 55591  43.0014 176.1167 0001152 259.1984  90.6103 15.26759098    17
STARLINK-5759           
1 55592C 23020Z   26102.14840278  .00033969  00000+0  12304-2 0  1025
2 55592  43.0008 175.9327 0001647 269.3678  84.3562 15.27560669    12
STARLINK-5703           
1 55593C 23020AA  26102.17270833  .00021101  00000+0  76458-3 0  1029
2 55593  43.0009 175.7483 0001469 261.0521 247.7420 15.27554572    17
STARLINK-5750           
1 55594C 23020AB  26102.16993056  .00023665  00000+0  87922-3 0  1023
2 55594  43.0005 175.8522 0001708 266.0426 189.2267 15.26730822    16
STARLINK-5729           
1 55596C 23020AD  26102.18729167  .00017004  00000+0  61587-3 0  1026
2 55596  43.0012 175.8966 0001323 262.9849 227.0302 15.27570073    17
STARLINK-5743           
1 55597C 23020AE  26102.19145833  .00006193  00000+0  23011-3 0  1027
2 55597  43.0012 164.5047 0001448 256.0948 305.4323 15.26737817    19
STARLINK-5756           
1 55598C 23020AF  26102.12062500  .00028040  00000+0  10159-2 0  1023
2 55598  43.0006 165.5555 0001212 258.1620 344.2161 15.27554095    14
STARLINK-5761           
1 55599C 23020AG  26102.13798611  .00031164  00000+0  11578-2 0  1021
2 55599  43.0008 165.4574 0001404 263.5174  75.7689 15.26728222    19
STARLINK-5755           
1 55600C 23020AH  26102.16368056  .00019661  00000+0  71214-3 0  1025
2 55600  43.0002 165.0673 0001511 262.7774 329.7000 15.27567611    11
STARLINK-5744           
1 55601C 23020AJ  26102.11576389  .00032465  00000+0  12064-2 0  1025
2 55601  43.0020 176.6693 0001531 267.2794  33.1638 15.26720799    16
STARLINK-5764           
1 55602C 23020AK  26102.13729167  .00029726  00000+0  11043-2 0  1024
2 55602  43.0004 165.3593 0001352 264.2128 114.6125 15.26732458    13
STARLINK-5735           
1 55603C 23020AL  26102.13937500  .00022621  00000+0  84033-3 0  1024
2 55603  43.0016 165.0904 0001954 268.4878 240.3716 15.26734834    19
STARLINK-5748           
1 55604C 23020AM  26102.14354167  .00010519  00000+0  38093-3 0  1026
2 55604  43.0017 150.4770 0001413 270.0715 208.8683 15.27580826    12
STARLINK-5725           
1 55605C 23020AN  26102.11784722  .00216950  00000+0  80552-2 0  1021
2 55605  43.0002 165.3713 0001393 270.9955  50.2151 15.26655750    18
STARLINK-5700           
1 55607C 23020AQ  26102.18381944  .00017405  00000+0  64624-3 0  1026
2 55607  43.0001 164.9323 0001570 262.6412  90.4574 15.26754649    16
STARLINK-5726           
1 55608C 23020AR  26102.11229167  .00025024  00000+0  90700-3 0  1028
2 55608  43.0006 165.6358 0001392 263.0147 286.4405 15.27543293    12
STARLINK-5719           
1 55609C 23020AS  26102.17826389  .00018693  00000+0  69450-3 0  1026
2 55609  43.0000 165.0143 0001687 264.2627  36.5300 15.26732493    15
STARLINK-5722           
1 55610C 23020AT  26102.17062500  .00013955  00000+0  50542-3 0  1023
2 55610  43.0008 165.4044 0001216 262.6503 205.4702 15.27574168    19
STARLINK-5730           
1 55611C 23020AU  26102.12201389  .00027267  00000+0  10131-2 0  1029
2 55611  42.9985 165.5990 0001336 264.1444 331.6452 15.26728281    17
STARLINK-5734           
1 55612C 23020AV  26102.12270833  .00031042  00000+0  11546-2 0  1027
2 55612  43.0002 165.5007 0001454 269.2553  11.1403 15.26690907    16
STARLINK-5714           
1 55614C 23020AX  26102.12131944  .00021121  00000+0  78472-3 0  1027
2 55614  43.0014 150.4187 0001360 268.6484 144.9434 15.26732060    11
STARLINK-5712           
1 55615C 23020AY  26102.18729167  .00006978  00000+0  25925-3 0  1022
2 55615  43.0013 164.4662 0001399 258.1816 299.9594 15.26737437    10
STARLINK-5710           
1 55616C 23020AZ  26102.15534722  .00027312  00000+0  10146-2 0  1024
2 55616  43.0028 164.8676 0001910 272.6829  18.1269 15.26732742    14
STARLINK-5721           
1 55617C 23020BA  26102.16229167  .00022414  00000+0  83308-3 0  1029
2 55617  43.0010 164.6564 0001402 261.1327 137.4113 15.26718971    13
STARLINK-5717           
1 55618C 23020BB  26102.18798611  .00012156  00000+0  45166-3 0  1029
2 55618  43.0022 164.7634 0002080 276.9662 159.5017 15.26734448    10
STARLINK-5720           
1 55619C 23020BC  26102.19354167  .00011857  00000+0  42939-3 0  1027
2 55619  43.0001 164.9260 0001410 263.1058 119.7540 15.27576708    11
STARLINK-5718           
1 55620C 23020BD  26102.14284722  .00022530  00000+0  83709-3 0  1023
2 55620  43.0020 165.0269 0002090 277.4111 265.5184 15.26728539    12
STARLINK-5709           
1 55621C 23020BE  26102.12479167  .00025093  00000+0  93236-3 0  1024
2 55621  43.0025 164.9899 0001984 268.1257 234.6491 15.26726036    12
STARLINK-5702           
1 55622C 23020BF  26102.15951389  .00022957  00000+0  85328-3 0  1028
2 55622  43.0012 164.9878 0001543 263.0300 348.2928 15.26717335    19
STARLINK-5698           
1 55623C 23020BG  26102.14076389  .00024225  00000+0  89988-3 0  1022
2 55623  42.9998 165.2312 0001987 264.1753 184.8729 15.26734972    13
STARLINK-5484           
1 55628C 23021A   26102.11229167 -.00023715  00000+0 -19869-2 0  1024
2 55628  70.0006 120.2738 0004124 265.2054  53.1302 14.98349539    19
STARLINK-5497           
1 55629C 23021B   26102.18243056 -.00045501  00000+0 -38127-2 0  1020
2 55629  70.0005 120.1230 0003528 277.9112  36.1464 14.98357270    18
STARLINK-5303           
1 55630C 23021C   26102.19770833 -.00045988  00000+0 -38541-2 0  1020
2 55630  70.0004 120.0326 0003862 268.3551 173.0786 14.98350251    16
STARLINK-5558           
1 55631C 23021D   26102.15812500 -.00040226  00000+0 -33698-2 0  1023
2 55631  70.0002 119.9794 0003296 270.4689  92.5229 14.98364748    11
STARLINK-5546           
1 55632C 23021E   26102.17548611 -.00041646  00000+0 -34900-2 0  1029
2 55632  70.0004 120.0367 0003101 267.5200  99.0590 14.98351866    14
STARLINK-5498           
1 55633C 23021F   26102.19006944 -.00044387  00000+0 -37196-2 0  1025
2 55633  70.0007 119.9756 0003638 268.7657 199.0316 14.98353804    12
STARLINK-5500           
1 55634C 23021G   26102.14284722 -.00036282  00000+0 -30400-2 0  1029
2 55634  70.0004 120.1209 0003113 268.9021 280.8424 14.98355523    11
STARLINK-5495           
1 55635C 23021H   26102.18173611 -.00042860  00000+0 -35915-2 0  1023
2 55635  70.0002 100.0273 0003894 268.2551 245.8552 14.98353497    16
STARLINK-5218           
1 55636C 23021J   26102.11784722 -.00027690  00000+0 -23213-2 0  1020
2 55636  70.0002 120.1065 0003008 266.7600 216.7130 14.98332299    10
STARLINK-5062           
1 55637C 23021K   26102.18590278 -.00033478  00000+0 -28052-2 0  1026
2 55637  70.0001 100.1132 0003417 270.4616 176.0454 14.98352034    12
STARLINK-5507           
1 55638C 23021L   26102.11784722 -.00025889  00000+0 -21692-2 0  1029
2 55638  70.0003 120.1323 0003568 267.4076 193.4437 14.98349513    14
STARLINK-5508           
1 55639C 23021M   26102.12965278 -.00049411  00000+0 -41402-2 0  1026
2 55639  70.0002 100.1309 0003588 267.6519 347.2173 14.98359970    16
STARLINK-5069           
1 55640C 23021N   26102.14493056 -.00046205  00000+0 -38720-2 0  1027
2 55640  70.0000 100.0642 0003334 268.5030  92.1492 14.98354554    15
STARLINK-5065           
1 55641C 23021P   26102.11229167 -.00040941  00000+0 -34328-2 0  1026
2 55641  70.0003 100.3216 0003482 269.2578 117.7473 14.98330494    18
STARLINK-5483           
1 55643C 23021R   26102.15118056 -.00046461  00000+0 -38931-2 0  1023
2 55643  70.0002 100.2702 0003581 269.4511 282.3165 14.98358328    10
